{"type":"FeatureCollection","features":[{"type":"Feature","properties":{},"geometry":{"type":"MultiPolygon","coordinates":[[[[4.485141,60.75162],[4.485828,60.75162],[4.485828,60.750934],[4.487201,60.750934],[4.487201,60.750247],[4.487888,60.750247],[4.487888,60.748874],[4.488574,60.748874],[4.488574,60.748187],[4.490634,60.748187],[4.490634,60.747501],[4.491321,60.747501],[4.491321,60.748187],[4.492007,60.748187],[4.492007,60.747501],[4.492694,60.747501],[4.492694,60.746814],[4.493381,60.746814],[4.493381,60.746127],[4.492694,60.746127],[4.492694,60.745441],[4.493381,60.745441],[4.493381,60.744754],[4.494067,60.744754],[4.494067,60.742694],[4.494754,60.742694],[4.494754,60.741321],[4.496814,60.741321],[4.496814,60.740634],[4.496127,60.740634],[4.496127,60.738574],[4.496814,60.738574],[4.496814,60.736514],[4.497501,60.736514],[4.497501,60.735141],[4.498187,60.735141],[4.498187,60.733768],[4.497501,60.733768],[4.497501,60.733081],[4.499561,60.733081],[4.499561,60.732394],[4.497501,60.732394],[4.497501,60.731708],[4.500247,60.731708],[4.500247,60.730334],[4.502307,60.730334],[4.502307,60.728961],[4.500247,60.728961],[4.500247,60.728275],[4.50162,60.728275],[4.50162,60.726901],[4.502994,60.726901],[4.502994,60.725528],[4.50368,60.725528],[4.50368,60.724841],[4.504367,60.724841],[4.504367,60.724155],[4.507114,60.724155],[4.507114,60.722781],[4.508487,60.722781],[4.508487,60.722095],[4.5078,60.722095],[4.5078,60.720035],[4.507114,60.720035],[4.507114,60.719348],[4.50574,60.719348],[4.50574,60.720721],[4.50368,60.720721],[4.50368,60.721408],[4.502994,60.721408],[4.502994,60.722095],[4.502307,60.722095],[4.502307,60.723468],[4.500247,60.723468],[4.500247,60.722781],[4.499561,60.722781],[4.499561,60.724841],[4.498874,60.724841],[4.498874,60.723468],[4.498187,60.723468],[4.498187,60.724155],[4.497501,60.724155],[4.497501,60.724841],[4.495441,60.724841],[4.495441,60.725528],[4.494754,60.725528],[4.494754,60.724841],[4.494067,60.724841],[4.494067,60.725528],[4.493381,60.725528],[4.493381,60.728275],[4.492694,60.728275],[4.492694,60.729648],[4.494067,60.729648],[4.494067,60.730334],[4.492694,60.730334],[4.492694,60.732394],[4.492007,60.732394],[4.492007,60.734454],[4.491321,60.734454],[4.491321,60.735828],[4.490634,60.735828],[4.490634,60.737888],[4.489948,60.737888],[4.489948,60.738574],[4.489261,60.738574],[4.489261,60.742007],[4.487888,60.742007],[4.487888,60.742694],[4.487201,60.742694],[4.487201,60.743381],[4.485828,60.743381],[4.485828,60.744067],[4.487201,60.744067],[4.487201,60.746127],[4.486514,60.746127],[4.486514,60.746814],[4.485828,60.746814],[4.485828,60.747501],[4.485141,60.747501],[4.485141,60.748187],[4.484454,60.748187],[4.484454,60.750934],[4.485141,60.750934],[4.485141,60.75162]],[[4.497501,60.727588],[4.497501,60.726901],[4.498187,60.726901],[4.498187,60.727588],[4.497501,60.727588]],[[4.495441,60.730334],[4.495441,60.729648],[4.496127,60.729648],[4.496127,60.730334],[4.495441,60.730334]]],[[[4.508487,60.722781],[4.508487,60.723468],[4.509174,60.723468],[4.509174,60.722781],[4.508487,60.722781]]],[[[4.504367,60.724841],[4.504367,60.726215],[4.505054,60.726215],[4.505054,60.724841],[4.504367,60.724841]]]]}}]}